[{"OBJECT_NAME":"STARLINK-6069","OBJECT_ID":"2023-078AP","EPOCH":"2026-03-09T22:42:04.054464","MEAN_MOTION":14.98327874,"ECCENTRICITY":0.00026032,"INCLINATION":70.0001,"RA_OF_ASC_NODE":323.7401,"ARG_OF_PERICENTER":261.2773,"MEAN_ANOMALY":98.8092,"EPHEMERIS_TYPE":0,"CLASSIFICATION_TYPE":"U","NORAD_CAT_ID":56804,"ELEMENT_SET_NO":999,"REV_AT_EPOCH":15388,"BSTAR":-0.00010825386,"MEAN_MOTION_DOT":-1.384e-5,"MEAN_MOTION_DDOT":0},{"OBJECT_NAME":"CENTAURI-8","OBJECT_ID":"2025-009DK","EPOCH":"2026-03-09T17:25:58.526112","MEAN_MOTION":14.9722833,"ECCENTRICITY":0.00030201,"INCLINATION":97.7096,"RA_OF_ASC_NODE":150.1876,"ARG_OF_PERICENTER":109.5881,"MEAN_ANOMALY":250.5667,"EPHEMERIS_TYPE":0,"CLASSIFICATION_TYPE":"U","NORAD_CAT_ID":62714,"ELEMENT_SET_NO":999,"REV_AT_EPOCH":6259,"BSTAR":0.00038891127,"MEAN_MOTION_DOT":4.445e-5,"MEAN_MOTION_DDOT":0}]
